{
"type": "FeatureCollection",
"name": "comunas_norte_grande_simplificado",
"crs": { "type": "name", "properties": { "name": "urn:ogc:def:crs:OGC:1.3:CRS84" } },
"xy_coordinate_resolution": 1e-05,
"features": [
{ "type": "Feature", "properties": { "comuna_norm": "CAMINA" }, "geometry": { "type": "Polygon", "coordinates": [ [ [ -69.31618, -19.13105 ], [ -69.27162, -19.23627 ], [ -69.14216, -19.29619 ], [ -69.17014, -19.31818 ], [ -69.19143, -19.35774 ], [ -69.2009, -19.36491 ], [ -69.22102, -19.36458 ], [ -69.23514, -19.3917 ], [ -69.26535, -19.39221 ], [ -69.27336, -19.38655 ], [ -69.27896, -19.39355 ], [ -69.30844, -19.40169 ], [ -69.32111, -19.42561 ], [ -69.3122, -19.4426 ], [ -69.32871, -19.45008 ], [ -69.35704, -19.49551 ], [ -69.38221, -19.51581 ], [ -69.45802, -19.54805 ], [ -69.51891, -19.5568 ], [ -69.57947, -19.583 ], [ -69.61161, -19.61463 ], [ -69.68815, -19.64137 ], [ -69.74969, -19.69567 ], [ -69.7495, -19.2763 ], [ -69.7322, -19.26206 ], [ -69.69899, -19.2678 ], [ -69.64369, -19.25917 ], [ -69.63233, -19.24125 ], [ -69.60132, -19.23187 ], [ -69.60067, -19.2165 ], [ -69.58581, -19.20435 ], [ -69.55812, -19.21567 ], [ -69.53539, -19.20327 ], [ -69.51811, -19.20903 ], [ -69.48529, -19.19719 ], [ -69.44373, -19.14499 ], [ -69.42023, -19.07925 ], [ -69.39605, -19.06138 ], [ -69.31494, -19.1031 ], [ -69.31618, -19.13105 ] ] ] } },
{ "type": "Feature", "properties": { "comuna_norm": "COLCHANE" }, "geometry": { "type": "Polygon", "coordinates": [ [ [ -69.01327, -18.94877 ], [ -68.99622, -18.95819 ], [ -68.97941, -18.94688 ], [ -68.96158, -18.94742 ], [ -68.9502, -18.93667 ], [ -68.92, -18.97669 ], [ -68.88964, -19.04343 ], [ -68.8709, -19.06037 ], [ -68.80596, -19.08355 ], [ -68.75242, -19.13204 ], [ -68.73782, -19.15314 ], [ -68.63057, -19.24835 ], [ -68.61978, -19.27649 ], [ -68.54275, -19.2967 ], [ -68.45146, -19.3681 ], [ -68.40487, -19.41618 ], [ -68.41257, -19.42171 ], [ -68.41239, -19.43104 ], [ -68.44064, -19.44041 ], [ -68.55687, -19.5964 ], [ -68.57247, -19.60549 ], [ -68.60158, -19.64364 ], [ -68.59769, -19.65659 ], [ -68.6078, -19.67344 ], [ -68.61899, -19.67599 ], [ -68.62422, -19.70207 ], [ -68.68175, -19.71848 ], [ -68.6867, -19.74073 ], [ -68.69629, -19.73805 ], [ -68.69283, -19.75023 ], [ -68.80594, -19.74807 ], [ -68.81436, -19.7354 ], [ -68.80993, -19.71494 ], [ -68.82974, -19.69821 ], [ -68.83293, -19.66187 ], [ -68.84554, -19.64396 ], [ -68.87819, -19.63564 ], [ -68.90778, -19.60035 ], [ -68.98715, -19.57084 ], [ -69.10097, -19.49486 ], [ -69.02319, -19.33155 ], [ -69.0783, -19.27345 ], [ -69.08813, -19.27707 ], [ -69.09647, -19.27015 ], [ -69.10558, -19.27644 ], [ -69.11879, -19.26782 ], [ -69.14291, -19.29676 ], [ -69.2689, -19.23879 ], [ -69.31692, -19.13522 ], [ -69.29625, -19.12783 ], [ -69.29145, -19.11459 ], [ -69.23341, -19.09392 ], [ -69.21743, -19.09675 ], [ -69.20355, -19.10989 ], [ -69.1914, -19.10454 ], [ -69.19119, -19.0952 ], [ -69.15341, -19.10273 ], [ -69.14387, -19.08716 ], [ -69.12945, -19.08693 ], [ -69.10405, -19.06901 ], [ -69.10639, -19.05601 ], [ -69.0905, -19.04655 ], [ -69.07474, -19.04777 ], [ -69.07223, -19.02723 ], [ -69.047, -19.03384 ], [ -69.0316, -19.00937 ], [ -69.01426, -19.00323 ], [ -69.01099, -18.98616 ], [ -69.02767, -18.9741 ], [ -69.01887, -18.96275 ], [ -69.02024, -18.9537 ], [ -69.01327, -18.94877 ] ] ] } },
{ "type": "Feature", "properties": { "comuna_norm": "PUTRE" }, "geometry": { "type": "Polygon", "coordinates": [ [ [ -69.25627, -17.954 ], [ -69.25617, -17.97502 ], [ -69.23061, -17.98919 ], [ -69.21694, -17.98076 ], [ -69.20147, -17.99035 ], [ -69.17087, -17.99219 ], [ -69.1653, -18.0014 ], [ -69.12094, -18.00444 ], [ -69.10541, -18.02116 ], [ -69.09576, -18.02219 ], [ -69.08684, -18.04072 ], [ -69.07405, -18.04171 ], [ -69.05703, -18.0612 ], [ -69.07599, -18.07778 ], [ -69.07429, -18.08673 ], [ -69.08029, -18.08581 ], [ -69.08191, -18.09713 ], [ -69.10049, -18.10385 ], [ -69.10214, -18.11847 ], [ -69.12767, -18.12775 ], [ -69.14612, -18.16383 ], [ -69.1043, -18.20875 ], [ -69.06393, -18.23096 ], [ -69.07428, -18.28746 ], [ -69.03809, -18.32263 ], [ -69.05197, -18.33761 ], [ -69.0485, -18.36624 ], [ -69.05688, -18.37516 ], [ -69.04596, -18.38489 ], [ -69.0483, -18.42658 ], [ -69.04102, -18.42975 ], [ -69.03624, -18.44508 ], [ -69.02835, -18.44658 ], [ -69.03025, -18.45553 ], [ -69.00279, -18.48236 ], [ -69.00878, -18.48936 ], [ -69.0056, -18.523 ], [ -69.0169, -18.57198 ], [ -69.00743, -18.60151 ], [ -69.02813, -18.60113 ], [ -69.03686, -18.62221 ], [ -69.03306, -18.62945 ], [ -69.01011, -18.63689 ], [ -68.98428, -18.67827 ], [ -68.98701, -18.70609 ], [ -68.97755, -18.72071 ], [ -68.97772, -18.73897 ], [ -68.92566, -18.84272 ], [ -68.92049, -18.88464 ], [ -68.91163, -18.89071 ], [ -68.92069, -18.89337 ], [ -68.92522, -18.90846 ], [ -68.93946, -18.91845 ], [ -68.94195, -18.92982 ], [ -68.95815, -18.94581 ], [ -68.97941, -18.94688 ], [ -68.99622, -18.95819 ], [ -69.01156, -18.94887 ], [ -69.02024, -18.9537 ], [ -69.01887, -18.96275 ], [ -69.02767, -18.9741 ], [ -69.01099, -18.98616 ], [ -69.00966, -18.99714 ], [ -69.02048, -19.00803 ], [ -69.0316, -19.00937 ], [ -69.047, -19.03384 ], [ -69.08716, -19.02112 ], [ -69.12339, -18.97991 ], [ -69.11888, -18.96625 ], [ -69.13839, -18.95142 ], [ -69.15243, -18.91585 ], [ -69.14413, -18.8948 ], [ -69.1551, -18.86323 ], [ -69.15274, -18.837 ], [ -69.20177, -18.82618 ], [ -69.21126, -18.79715 ], [ -69.22121, -18.78872 ], [ -69.26907, -18.78228 ], [ -69.2802, -18.78801 ], [ -69.29753, -18.78086 ], [ -69.32718, -18.78279 ], [ -69.33597, -18.80389 ], [ -69.35203, -18.8083 ], [ -69.3585, -18.8216 ], [ -69.38273, -18.81151 ], [ -69.4046, -18.78816 ], [ -69.42919, -18.72464 ], [ -69.44871, -18.71408 ], [ -69.45334, -18.70335 ], [ -69.49052, -18.6989 ], [ -69.49055, -18.68965 ], [ -69.51384, -18.65494 ], [ -69.53543, -18.65084 ], [ -69.57916, -18.62038 ], [ -69.63435, -18.59289 ], [ -69.6498, -18.5731 ], [ -69.68763, -18.5518 ], [ -69.69358, -18.54017 ], [ -69.68121, -18.519 ], [ -69.6789, -18.50001 ], [ -69.65479, -18.46187 ], [ -69.62576, -18.43503 ], [ -69.65673, -18.37875 ], [ -69.67951, -18.35109 ], [ -69.6507, -18.31354 ], [ -69.68124, -18.26042 ], [ -69.6661, -18.23507 ], [ -69.67995, -18.22571 ], [ -69.69534, -18.19112 ], [ -69.69353, -18.17993 ], [ -69.67732, -18.16269 ], [ -69.64296, -18.16294 ], [ -69.64263, -18.14519 ], [ -69.6576, -18.13371 ], [ -69.65959, -18.11997 ], [ -69.65041, -18.10586 ], [ -69.64504, -18.06534 ], [ -69.6487, -18.0471 ], [ -69.62982, -17.996 ], [ -69.59326, -17.9898 ], [ -69.57548, -17.9986 ], [ -69.53177, -17.9886 ], [ -69.4866, -17.98907 ], [ -69.46548, -17.98008 ], [ -69.41706, -17.98591 ], [ -69.39525, -18.00204 ], [ -69.36605, -17.99489 ], [ -69.35574, -17.98533 ], [ -69.26942, -17.96851 ], [ -69.25627, -17.954 ] ] ] } },
{ "type": "Feature", "properties": { "comuna_norm": "MARIA ELENA" }, "geometry": { "type": "Polygon", "coordinates": [ [ [ -69.55129, -21.6302 ], [ -69.31307, -21.39817 ], [ -68.85968, -21.28498 ], [ -68.93625, -21.43487 ], [ -68.99264, -21.63608 ], [ -68.93244, -21.82869 ], [ -69.17671, -22.22804 ], [ -69.17177, -22.32711 ], [ -69.15582, -22.35652 ], [ -69.147, -22.45506 ], [ -69.19076, -22.57634 ], [ -69.53614, -22.88021 ], [ -69.76979, -22.86943 ], [ -69.96947, -22.87089 ], [ -69.96229, -22.84883 ], [ -69.94583, -22.83708 ], [ -69.9544, -22.8106 ], [ -69.95162, -22.79933 ], [ -69.93379, -22.77209 ], [ -69.93486, -22.74251 ], [ -69.92104, -22.68309 ], [ -69.89958, -22.65363 ], [ -69.89373, -22.63514 ], [ -69.90854, -22.56377 ], [ -69.92222, -22.54049 ], [ -69.91608, -22.53852 ], [ -69.91823, -22.47495 ], [ -69.95759, -22.458 ], [ -69.96598, -22.44691 ], [ -69.96461, -22.42593 ], [ -69.98281, -22.34624 ], [ -69.96385, -22.31927 ], [ -69.96212, -22.30204 ], [ -69.97371, -22.28623 ], [ -69.97183, -22.27578 ], [ -69.94917, -22.25589 ], [ -69.9196, -22.24583 ], [ -69.86478, -22.2441 ], [ -69.84403, -22.22727 ], [ -69.81764, -22.22683 ], [ -69.80923, -22.21081 ], [ -69.81175, -22.20064 ], [ -69.75758, -22.19394 ], [ -69.74475, -22.15545 ], [ -69.74224, -22.12479 ], [ -69.7603, -22.11311 ], [ -69.76492, -22.09211 ], [ -69.75443, -22.0825 ], [ -69.74249, -22.02657 ], [ -69.78104, -21.9638 ], [ -69.79823, -21.9121 ], [ -69.81065, -21.8999 ], [ -69.84291, -21.88814 ], [ -69.85326, -21.87234 ], [ -69.90409, -21.8708 ], [ -69.83348, -21.74956 ], [ -69.84013, -21.7064 ], [ -69.83206, -21.44235 ], [ -69.81783, -21.43665 ], [ -69.78113, -21.4417 ], [ -69.78169, -21.43227 ], [ -69.76563, -21.41958 ], [ -69.73423, -21.44768 ], [ -69.70197, -21.45608 ], [ -69.69504, -21.45054 ], [ -69.68792, -21.45969 ], [ -69.66679, -21.46297 ], [ -69.66258, -21.48132 ], [ -69.63949, -21.49993 ], [ -69.62571, -21.52889 ], [ -69.63157, -21.53275 ], [ -69.62568, -21.54601 ], [ -69.59823, -21.56141 ], [ -69.57726, -21.5977 ], [ -69.57841, -21.60609 ], [ -69.55129, -21.6302 ] ] ] } },
{ "type": "Feature", "properties": { "comuna_norm": "CALAMA" }, "geometry": { "type": "Polygon", "coordinates": [ [ [ -68.01561, -22.02315 ], [ -68.00738, -22.03957 ], [ -67.96461, -22.05391 ], [ -67.96379, -22.0797 ], [ -67.94857, -22.08776 ], [ -67.93923, -22.10743 ], [ -67.94122, -22.13029 ], [ -67.94907, -22.14787 ], [ -67.9575, -22.15181 ], [ -67.95764, -22.16604 ], [ -67.95562, -22.17697 ], [ -67.94967, -22.17632 ], [ -67.93197, -22.20269 ], [ -67.93533, -22.2144 ], [ -67.92141, -22.24146 ], [ -67.92452, -22.26166 ], [ -67.91543, -22.2724 ], [ -67.93727, -22.27323 ], [ -67.93283, -22.28864 ], [ -67.9387, -22.29367 ], [ -67.93223, -22.30473 ], [ -67.94024, -22.31131 ], [ -67.94311, -22.32808 ], [ -67.94185, -22.33639 ], [ -67.93099, -22.34296 ], [ -67.94086, -22.35864 ], [ -67.93256, -22.36501 ], [ -67.93306, -22.3751 ], [ -67.96824, -22.39599 ], [ -67.97047, -22.41055 ], [ -67.99805, -22.41702 ], [ -68.01331, -22.43253 ], [ -68.02772, -22.41829 ], [ -68.06554, -22.42028 ], [ -68.07642, -22.4326 ], [ -68.12364, -22.40248 ], [ -68.15262, -22.40248 ], [ -68.15403, -22.43765 ], [ -68.19784, -22.45685 ], [ -68.22929, -22.50416 ], [ -68.24357, -22.50795 ], [ -68.24408, -22.51896 ], [ -68.25621, -22.53279 ], [ -68.25196, -22.53917 ], [ -68.26062, -22.5456 ], [ -68.26389, -22.59995 ], [ -68.28014, -22.60185 ], [ -68.291, -22.61578 ], [ -68.30588, -22.62041 ], [ -68.30955, -22.63241 ], [ -68.33403, -22.65352 ], [ -68.36011, -22.6646 ], [ -68.38718, -22.72536 ], [ -68.40573, -22.74086 ], [ -68.40511, -22.74853 ], [ -68.43204, -22.74931 ], [ -68.44982, -22.76916 ], [ -68.45986, -22.7895 ], [ -68.46662, -22.85564 ], [ -68.48403, -22.8491 ], [ -68.50675, -22.87132 ], [ -68.52057, -22.89985 ], [ -68.52449, -22.94578 ], [ -68.53456, -22.97567 ], [ -68.53722, -23.00924 ], [ -68.52633, -23.02255 ], [ -68.53239, -23.05243 ], [ -68.54467, -23.06431 ], [ -68.54081, -23.08346 ], [ -68.59472, -23.08839 ], [ -68.6169, -23.0804 ], [ -68.63841, -23.08386 ], [ -68.65464, -23.10435 ], [ -68.68616, -23.1006 ], [ -68.70828, -23.11051 ], [ -68.73777, -23.11379 ], [ -68.74404, -23.12603 ], [ -68.75485, -23.12485 ], [ -68.76285, -23.13979 ], [ -68.77005, -23.14123 ], [ -68.82505, -23.12084 ], [ -68.8465, -23.10077 ], [ -68.82667, -23.06202 ], [ -68.82526, -23.04566 ], [ -68.83267, -23.03821 ], [ -68.81533, -23.00829 ], [ -68.8018, -22.99919 ], [ -68.81482, -22.96785 ], [ -68.86495, -22.92723 ], [ -68.86847, -22.90515 ], [ -68.98644, -22.74506 ], [ -69.15089, -22.66307 ], [ -69.18037, -22.62919 ], [ -69.19401, -22.59667 ], [ -69.147, -22.45506 ], [ -69.15582, -22.35652 ], [ -69.17177, -22.32711 ], [ -69.17671, -22.22804 ], [ -68.93244, -21.82869 ], [ -68.99264, -21.63608 ], [ -68.93625, -21.43487 ], [ -68.85968, -21.28498 ], [ -68.53266, -21.06616 ], [ -68.4679, -21.22074 ], [ -68.5146, -21.27826 ], [ -68.50291, -21.39165 ], [ -68.52191, -21.54637 ], [ -68.39535, -21.65314 ], [ -68.31163, -21.6926 ], [ -68.31959, -21.7803 ], [ -68.34025, -21.88926 ], [ -68.19283, -21.90586 ], [ -68.07111, -21.98212 ], [ -68.01561, -22.02315 ] ] ] } },
{ "type": "Feature", "properties": { "comuna_norm": "POZO ALMONTE" }, "geometry": { "type": "Polygon", "coordinates": [ [ [ -69.0048, -19.91438 ], [ -68.97872, -19.9368 ], [ -68.98232, -19.98193 ], [ -68.96887, -20.02324 ], [ -68.98265, -20.07905 ], [ -68.99229, -20.096 ], [ -69.00718, -20.10159 ], [ -69.00872, -20.11019 ], [ -68.99229, -20.14323 ], [ -68.9976, -20.14965 ], [ -68.99052, -20.17545 ], [ -68.96422, -20.18094 ], [ -68.96157, -20.199 ], [ -68.96662, -20.21346 ], [ -69.00917, -20.25817 ], [ -69.0195, -20.2874 ], [ -69.05072, -20.28581 ], [ -69.0669, -20.29706 ], [ -69.08684, -20.28772 ], [ -69.10514, -20.28949 ], [ -69.13329, -20.27181 ], [ -69.16709, -20.26573 ], [ -69.19423, -20.24926 ], [ -69.21803, -20.24378 ], [ -69.29386, -20.25065 ], [ -69.33003, -20.24736 ], [ -69.42526, -20.2583 ], [ -69.4746, -20.25175 ], [ -69.47744, -20.73077 ], [ -69.39577, -20.73264 ], [ -69.30752, -20.70301 ], [ -69.27123, -20.71055 ], [ -69.24184, -20.73462 ], [ -69.22464, -20.73619 ], [ -69.16174, -20.71738 ], [ -69.13874, -20.72426 ], [ -69.10466, -20.72079 ], [ -69.08293, -20.70996 ], [ -69.0646, -20.68553 ], [ -69.04602, -20.68848 ], [ -69.00198, -20.6764 ], [ -68.96698, -20.68907 ], [ -68.95406, -20.75446 ], [ -68.96325, -20.75921 ], [ -68.95729, -20.76415 ], [ -68.95681, -20.77841 ], [ -68.96532, -20.79161 ], [ -68.95582, -20.82586 ], [ -68.96645, -20.91131 ], [ -68.96722, -21.09674 ], [ -68.89972, -21.17316 ], [ -68.85968, -21.28498 ], [ -69.31307, -21.39817 ], [ -69.55138, -21.63008 ], [ -69.57841, -21.60609 ], [ -69.57726, -21.5977 ], [ -69.59823, -21.56141 ], [ -69.62568, -21.54601 ], [ -69.63157, -21.53275 ], [ -69.62571, -21.52889 ], [ -69.63949, -21.49993 ], [ -69.66258, -21.48132 ], [ -69.66679, -21.46297 ], [ -69.68792, -21.45969 ], [ -69.69504, -21.45054 ], [ -69.70197, -21.45608 ], [ -69.73423, -21.44768 ], [ -69.76563, -21.41958 ], [ -69.78169, -21.43227 ], [ -69.78113, -21.4417 ], [ -69.81783, -21.43665 ], [ -69.83031, -21.4433 ], [ -69.84154, -21.43695 ], [ -69.88208, -21.43715 ], [ -69.90402, -21.42544 ], [ -69.91206, -21.42996 ], [ -69.91856, -21.4259 ], [ -69.92509, -21.42647 ], [ -69.92734, -21.42487 ], [ -69.93232, -21.42554 ], [ -69.93414, -21.42414 ], [ -69.93678, -21.42438 ], [ -69.93732, -21.42428 ], [ -69.93769, -21.42403 ], [ -69.93815, -21.42369 ], [ -69.93438, -21.42376 ], [ -69.93223, -21.42483 ], [ -69.93063, -21.42463 ], [ -69.92975, -21.37297 ], [ -69.88167, -21.30453 ], [ -69.89075, -21.11022 ], [ -69.81984, -21.11714 ], [ -69.99449, -20.83781 ], [ -70.0513, -20.69925 ], [ -70.02583, -20.57828 ], [ -70.07854, -20.45751 ], [ -70.10793, -20.35056 ], [ -70.02802, -20.30605 ], [ -69.96592, -20.32137 ], [ -69.91125, -20.22838 ], [ -69.8907, -20.04943 ], [ -69.81121, -20.10275 ], [ -69.27324, -19.97511 ], [ -69.1837, -19.99149 ], [ -69.16171, -19.99005 ], [ -69.08425, -19.96097 ], [ -69.07831, -19.95103 ], [ -69.05258, -19.94 ], [ -69.05384, -19.92884 ], [ -69.0048, -19.91438 ] ] ] } },
{ "type": "Feature", "properties": { "comuna_norm": "HUARA" }, "geometry": { "type": "Polygon", "coordinates": [ [ [ -70.27876, -19.28295 ], [ -70.27386, -19.23209 ], [ -70.27901, -19.2299 ], [ -70.12459, -19.15528 ], [ -70.09272, -19.11997 ], [ -69.94205, -19.04991 ], [ -69.91882, -19.05296 ], [ -69.88016, -19.03524 ], [ -69.82191, -19.04772 ], [ -69.78852, -19.04675 ], [ -69.78245, -19.04082 ], [ -69.7085, -19.02668 ], [ -69.65961, -19.02828 ], [ -69.6384, -19.02168 ], [ -69.53313, -19.02967 ], [ -69.50309, -19.02678 ], [ -69.46685, -19.03692 ], [ -69.44649, -19.02683 ], [ -69.40941, -19.02724 ], [ -69.39119, -19.04312 ], [ -69.39006, -19.06289 ], [ -69.41393, -19.07981 ], [ -69.43743, -19.14555 ], [ -69.47383, -19.19414 ], [ -69.51181, -19.20959 ], [ -69.52909, -19.20383 ], [ -69.55182, -19.21623 ], [ -69.57951, -19.20491 ], [ -69.59437, -19.21706 ], [ -69.59502, -19.23243 ], [ -69.62528, -19.24134 ], [ -69.63687, -19.25755 ], [ -69.67177, -19.26785 ], [ -69.7259, -19.26262 ], [ -69.7432, -19.27686 ], [ -69.74339, -19.69623 ], [ -69.68185, -19.64193 ], [ -69.60531, -19.61519 ], [ -69.57317, -19.58356 ], [ -69.51261, -19.55736 ], [ -69.45172, -19.54861 ], [ -69.37263, -19.51414 ], [ -69.35075, -19.49607 ], [ -69.32242, -19.45064 ], [ -69.30676, -19.44238 ], [ -69.31527, -19.42543 ], [ -69.30214, -19.40225 ], [ -69.27267, -19.39411 ], [ -69.26706, -19.38711 ], [ -69.25905, -19.39277 ], [ -69.22884, -19.39226 ], [ -69.21472, -19.36514 ], [ -69.1946, -19.36547 ], [ -69.18025, -19.35371 ], [ -69.16424, -19.31296 ], [ -69.13199, -19.29381 ], [ -69.12041, -19.27276 ], [ -69.11151, -19.26831 ], [ -69.09928, -19.277 ], [ -69.09017, -19.27071 ], [ -69.08183, -19.27763 ], [ -69.072, -19.27401 ], [ -69.01689, -19.33211 ], [ -69.09467, -19.49542 ], [ -68.98085, -19.5714 ], [ -68.90148, -19.60091 ], [ -68.92051, -19.67698 ], [ -68.92262, -19.7442 ], [ -68.99875, -19.81987 ], [ -69.03222, -19.83449 ], [ -69.03521, -19.86379 ], [ -69.00542, -19.91906 ], [ -69.04754, -19.9294 ], [ -69.04628, -19.94056 ], [ -69.07201, -19.95159 ], [ -69.07795, -19.96152 ], [ -69.15541, -19.99061 ], [ -69.1774, -19.99205 ], [ -69.26694, -19.97567 ], [ -69.80491, -20.10331 ], [ -69.8844, -20.04998 ], [ -70.08496, -20.08424 ], [ -70.12812, -20.06112 ], [ -70.12159, -20.04816 ], [ -70.11742, -19.98954 ], [ -70.13142, -19.96462 ], [ -70.13027, -19.94424 ], [ -70.13614, -19.9347 ], [ -70.13148, -19.92462 ], [ -70.14107, -19.9034 ], [ -70.12542, -19.8831 ], [ -70.13649, -19.85142 ], [ -70.14414, -19.84744 ], [ -70.1425, -19.83876 ], [ -70.15898, -19.82932 ], [ -70.15053, -19.82713 ], [ -70.14497, -19.81553 ], [ -70.14016, -19.78562 ], [ -70.15351, -19.76748 ], [ -70.14625, -19.75208 ], [ -70.14556, -19.72338 ], [ -70.16762, -19.69873 ], [ -70.15711, -19.68487 ], [ -70.16742, -19.67261 ], [ -70.1631, -19.65829 ], [ -70.18548, -19.63499 ], [ -70.20171, -19.62901 ], [ -70.19584, -19.62222 ], [ -70.23382, -19.60254 ], [ -70.20703, -19.59766 ], [ -70.19955, -19.59068 ], [ -70.19767, -19.57433 ], [ -70.2073, -19.5648 ], [ -70.20004, -19.55813 ], [ -70.20607, -19.53515 ], [ -70.196, -19.52168 ], [ -70.20031, -19.50887 ], [ -70.19599, -19.49858 ], [ -70.20497, -19.49436 ], [ -70.21085, -19.44633 ], [ -70.22093, -19.44125 ], [ -70.21894, -19.40845 ], [ -70.2301, -19.40393 ], [ -70.22932, -19.38633 ], [ -70.25519, -19.35299 ], [ -70.25694, -19.34279 ], [ -70.24929, -19.33189 ], [ -70.27826, -19.30911 ], [ -70.271, -19.29683 ], [ -70.27876, -19.28295 ] ] ] } },
{ "type": "Feature", "properties": { "comuna_norm": "CAMARONES" }, "geometry": { "type": "Polygon", "coordinates": [ [ [ -70.32978, -18.87243 ], [ -70.3511, -18.8363 ], [ -70.3385, -18.82904 ], [ -70.29448, -18.8152 ], [ -70.02159, -18.90367 ], [ -70.0193, -18.82582 ], [ -69.85482, -18.82246 ], [ -69.82405, -18.80389 ], [ -69.79951, -18.79867 ], [ -69.76667, -18.76565 ], [ -69.73286, -18.74864 ], [ -69.67237, -18.73074 ], [ -69.5871, -18.72427 ], [ -69.51533, -18.69993 ], [ -69.46194, -18.69947 ], [ -69.42919, -18.72464 ], [ -69.4046, -18.78816 ], [ -69.38273, -18.81151 ], [ -69.3585, -18.8216 ], [ -69.35203, -18.8083 ], [ -69.33597, -18.80389 ], [ -69.32718, -18.78279 ], [ -69.29753, -18.78086 ], [ -69.2802, -18.78801 ], [ -69.26907, -18.78228 ], [ -69.22121, -18.78872 ], [ -69.21126, -18.79715 ], [ -69.20177, -18.82618 ], [ -69.15274, -18.837 ], [ -69.1551, -18.86323 ], [ -69.14413, -18.8948 ], [ -69.15321, -18.91173 ], [ -69.14708, -18.93213 ], [ -69.13632, -18.95395 ], [ -69.11888, -18.96625 ], [ -69.12339, -18.97991 ], [ -69.08716, -19.02112 ], [ -69.07117, -19.03041 ], [ -69.07474, -19.04777 ], [ -69.0905, -19.04655 ], [ -69.10639, -19.05601 ], [ -69.10405, -19.06901 ], [ -69.12945, -19.08693 ], [ -69.14387, -19.08716 ], [ -69.15341, -19.10273 ], [ -69.19119, -19.0952 ], [ -69.1914, -19.10454 ], [ -69.20355, -19.10989 ], [ -69.21743, -19.09675 ], [ -69.23341, -19.09392 ], [ -69.29145, -19.11459 ], [ -69.29545, -19.12718 ], [ -69.31789, -19.13651 ], [ -69.31216, -19.125 ], [ -69.31494, -19.1031 ], [ -69.39577, -19.06177 ], [ -69.40244, -19.03451 ], [ -69.42555, -19.02471 ], [ -69.45279, -19.02626 ], [ -69.47315, -19.03636 ], [ -69.50939, -19.02622 ], [ -69.53942, -19.02911 ], [ -69.64469, -19.02112 ], [ -69.66591, -19.02771 ], [ -69.7148, -19.02611 ], [ -69.78875, -19.04026 ], [ -69.79482, -19.04619 ], [ -69.8264, -19.04731 ], [ -69.88646, -19.03468 ], [ -69.92512, -19.0524 ], [ -69.94835, -19.04935 ], [ -70.09902, -19.1194 ], [ -70.13089, -19.15472 ], [ -70.2853, -19.22934 ], [ -70.28331, -19.21669 ], [ -70.26718, -19.19771 ], [ -70.27617, -19.17782 ], [ -70.26915, -19.14631 ], [ -70.28473, -19.12252 ], [ -70.28183, -19.10486 ], [ -70.31529, -19.02414 ], [ -70.30644, -18.99044 ], [ -70.30851, -18.96489 ], [ -70.3199, -18.94485 ], [ -70.31739, -18.93104 ], [ -70.328, -18.9051 ], [ -70.32978, -18.87243 ] ] ] } },
{ "type": "Feature", "properties": { "comuna_norm": "ARICA" }, "geometry": { "type": "Polygon", "coordinates": [ [ [ -70.35968, -18.79277 ], [ -70.35141, -18.78072 ], [ -70.35328, -18.76818 ], [ -70.33786, -18.75716 ], [ -70.34251, -18.71249 ], [ -70.3362, -18.6798 ], [ -70.34985, -18.64923 ], [ -70.33921, -18.62507 ], [ -70.33328, -18.54012 ], [ -70.32497, -18.53549 ], [ -70.31668, -18.51512 ], [ -70.32942, -18.49209 ], [ -70.32672, -18.48312 ], [ -70.33353, -18.47999 ], [ -70.32678, -18.4808 ], [ -70.32941, -18.47448 ], [ -70.32775, -18.46842 ], [ -70.32362, -18.47604 ], [ -70.32366, -18.46926 ], [ -70.31646, -18.47203 ], [ -70.30772, -18.46631 ], [ -70.30265, -18.44871 ], [ -70.3114, -18.42985 ], [ -70.37912, -18.35012 ], [ -70.34853, -18.32348 ], [ -70.31815, -18.31117 ], [ -70.27473, -18.30987 ], [ -70.19769, -18.32233 ], [ -70.1495, -18.31939 ], [ -70.05044, -18.26927 ], [ -69.98525, -18.26978 ], [ -69.9659, -18.26218 ], [ -69.90651, -18.20331 ], [ -69.86054, -18.17053 ], [ -69.8162, -18.11644 ], [ -69.78365, -18.04829 ], [ -69.77541, -18.04936 ], [ -69.76635, -18.0792 ], [ -69.74592, -18.08581 ], [ -69.77174, -18.10647 ], [ -69.75645, -18.13475 ], [ -69.74357, -18.14641 ], [ -69.70166, -18.14905 ], [ -69.67086, -18.16183 ], [ -69.68866, -18.17245 ], [ -69.69534, -18.19112 ], [ -69.67995, -18.22571 ], [ -69.6661, -18.23507 ], [ -69.68124, -18.26042 ], [ -69.65071, -18.31354 ], [ -69.68018, -18.34864 ], [ -69.62577, -18.43503 ], [ -69.65479, -18.46187 ], [ -69.67891, -18.50001 ], [ -69.68122, -18.519 ], [ -69.69389, -18.53536 ], [ -69.69049, -18.54854 ], [ -69.6498, -18.5731 ], [ -69.63436, -18.59289 ], [ -69.57917, -18.62038 ], [ -69.53543, -18.65084 ], [ -69.51384, -18.65494 ], [ -69.49056, -18.68965 ], [ -69.49053, -18.6989 ], [ -69.51533, -18.69993 ], [ -69.5871, -18.72427 ], [ -69.67237, -18.73074 ], [ -69.73286, -18.74864 ], [ -69.76667, -18.76565 ], [ -69.79951, -18.79867 ], [ -69.82406, -18.80389 ], [ -69.85482, -18.82246 ], [ -70.0193, -18.82582 ], [ -70.02159, -18.90367 ], [ -70.29448, -18.8152 ], [ -70.34919, -18.8349 ], [ -70.35968, -18.79277 ] ] ] } },
{ "type": "Feature", "properties": { "comuna_norm": "TOCOPILLA" }, "geometry": { "type": "Polygon", "coordinates": [ [ [ -70.23803, -22.49691 ], [ -70.26855, -22.4606 ], [ -70.25717, -22.4393 ], [ -70.26174, -22.41305 ], [ -70.24501, -22.38134 ], [ -70.25782, -22.35617 ], [ -70.24987, -22.34378 ], [ -70.25062, -22.32436 ], [ -70.23716, -22.30958 ], [ -70.24764, -22.28443 ], [ -70.23319, -22.26873 ], [ -70.24079, -22.24885 ], [ -70.2289, -22.23156 ], [ -70.23229, -22.22527 ], [ -70.22494, -22.20991 ], [ -70.23023, -22.20168 ], [ -70.22405, -22.18069 ], [ -70.23201, -22.17036 ], [ -70.22519, -22.16723 ], [ -70.21447, -22.13359 ], [ -70.21663, -22.09402 ], [ -70.19841, -22.08842 ], [ -70.18886, -22.05885 ], [ -70.1979, -22.01358 ], [ -70.18346, -21.99749 ], [ -70.18203, -21.97819 ], [ -70.18778, -21.97225 ], [ -70.17491, -21.96438 ], [ -70.16921, -21.93194 ], [ -70.19022, -21.90162 ], [ -70.15713, -21.88529 ], [ -70.14306, -21.84873 ], [ -70.14625, -21.81689 ], [ -70.1406, -21.80646 ], [ -70.15964, -21.7613 ], [ -70.15526, -21.74764 ], [ -70.14936, -21.74653 ], [ -70.14438, -21.71775 ], [ -70.1539, -21.68903 ], [ -70.14584, -21.63678 ], [ -70.12467, -21.63025 ], [ -70.09427, -21.59298 ], [ -70.09292, -21.55252 ], [ -70.07103, -21.52857 ], [ -70.08302, -21.48903 ], [ -70.0615, -21.45477 ], [ -70.05491, -21.42794 ], [ -70.0393, -21.42456 ], [ -70.00487, -21.43852 ], [ -69.93914, -21.42314 ], [ -69.91206, -21.42996 ], [ -69.90402, -21.42544 ], [ -69.88114, -21.43735 ], [ -69.84086, -21.43714 ], [ -69.83206, -21.44235 ], [ -69.84013, -21.7064 ], [ -69.83348, -21.74956 ], [ -69.90409, -21.8708 ], [ -69.85326, -21.87234 ], [ -69.82921, -21.89713 ], [ -69.80508, -21.90394 ], [ -69.78104, -21.9638 ], [ -69.74249, -22.02657 ], [ -69.75443, -22.0825 ], [ -69.76492, -22.09211 ], [ -69.7603, -22.11311 ], [ -69.74224, -22.12479 ], [ -69.75221, -22.1847 ], [ -69.75758, -22.19394 ], [ -69.81175, -22.20064 ], [ -69.81123, -22.2195 ], [ -69.81877, -22.2274 ], [ -69.84403, -22.22727 ], [ -69.86478, -22.2441 ], [ -69.9196, -22.24583 ], [ -69.94917, -22.25589 ], [ -69.9615, -22.27104 ], [ -69.96882, -22.27171 ], [ -69.97378, -22.28601 ], [ -69.96212, -22.30204 ], [ -69.96385, -22.31927 ], [ -69.98281, -22.34624 ], [ -69.96519, -22.42512 ], [ -70.26328, -22.63181 ], [ -70.26798, -22.60966 ], [ -70.27831, -22.60236 ], [ -70.28438, -22.5715 ], [ -70.27122, -22.56133 ], [ -70.2684, -22.5517 ], [ -70.27541, -22.54959 ], [ -70.25994, -22.54803 ], [ -70.25257, -22.53913 ], [ -70.24961, -22.50775 ], [ -70.23803, -22.49691 ] ] ] } },
{ "type": "Feature", "properties": { "comuna_norm": "ANTOFAGASTA" }, "geometry": { "type": "Polygon", "coordinates": [ [ [ -70.57588, -23.52936 ], [ -70.59905, -23.50629 ], [ -70.61573, -23.5081 ], [ -70.61868, -23.52119 ], [ -70.62895, -23.51566 ], [ -70.62858, -23.5048 ], [ -70.62043, -23.49821 ], [ -70.62364, -23.47656 ], [ -70.61577, -23.46235 ], [ -70.61022, -23.47491 ], [ -70.60526, -23.47303 ], [ -70.60288, -23.45237 ], [ -70.58952, -23.42773 ], [ -70.59112, -23.41511 ], [ -70.60705, -23.4044 ], [ -70.59853, -23.37313 ], [ -70.60639, -23.3593 ], [ -70.55141, -23.36237 ], [ -70.39926, -23.29683 ], [ -70.18528, -23.34442 ], [ -70.18086, -23.31645 ], [ -70.17027, -23.31053 ], [ -70.12858, -23.23453 ], [ -70.13512, -23.22613 ], [ -70.12914, -23.21567 ], [ -70.13199, -23.20311 ], [ -70.12037, -23.20768 ], [ -70.10324, -23.18268 ], [ -70.09321, -23.18951 ], [ -70.07786, -23.17316 ], [ -70.07113, -23.15418 ], [ -70.05941, -23.14387 ], [ -70.0513, -23.1148 ], [ -70.03253, -23.09106 ], [ -70.03159, -23.06684 ], [ -70.01376, -23.05793 ], [ -69.9697, -23.32938 ], [ -70.04771, -23.6234 ], [ -69.60047, -23.62608 ], [ -69.43811, -23.60416 ], [ -69.34561, -23.66053 ], [ -69.14522, -23.6665 ], [ -69.08095, -23.68921 ], [ -68.87401, -23.8751 ], [ -68.46183, -23.98453 ], [ -68.34559, -23.99786 ], [ -68.11781, -24.23812 ], [ -68.06504, -24.32642 ], [ -68.26045, -24.40301 ], [ -68.26782, -24.43537 ], [ -68.29632, -24.454 ], [ -68.31059, -24.49061 ], [ -68.37543, -24.49248 ], [ -68.38724, -24.48576 ], [ -68.43278, -24.58276 ], [ -68.43325, -24.60574 ], [ -68.45056, -24.60253 ], [ -68.45533, -24.61772 ], [ -68.46775, -24.62283 ], [ -68.47492, -24.62108 ], [ -68.48733, -24.60009 ], [ -68.49512, -24.59997 ], [ -68.5017, -24.61666 ], [ -68.49491, -24.63464 ], [ -68.4866, -24.63904 ], [ -68.4918, -24.66433 ], [ -68.51546, -24.703 ], [ -68.53324, -24.71169 ], [ -68.54285, -24.72511 ], [ -68.54555, -24.75417 ], [ -68.5615, -24.76301 ], [ -68.56809, -24.79555 ], [ -68.53929, -24.81651 ], [ -68.53324, -24.85584 ], [ -68.51963, -24.87334 ], [ -68.49262, -24.87522 ], [ -68.4837, -24.89705 ], [ -68.43141, -24.90603 ], [ -68.43066, -24.91364 ], [ -68.43902, -24.91834 ], [ -68.42998, -24.9306 ], [ -68.42677, -24.96135 ], [ -68.40809, -24.97188 ], [ -68.41606, -24.99353 ], [ -68.41272, -25.01954 ], [ -68.38802, -25.03788 ], [ -68.37435, -25.03583 ], [ -68.36435, -25.04923 ], [ -68.37147, -25.06422 ], [ -68.36614, -25.0808 ], [ -68.35825, -25.08417 ], [ -68.35463, -25.10286 ], [ -68.34327, -25.11064 ], [ -68.40855, -25.14451 ], [ -68.42353, -25.13111 ], [ -68.43331, -25.13119 ], [ -68.43674, -25.12247 ], [ -68.44402, -25.13368 ], [ -68.4571, -25.12557 ], [ -68.46496, -25.13079 ], [ -68.47221, -25.15106 ], [ -68.48273, -25.15394 ], [ -68.48693, -25.16274 ], [ -68.49875, -25.16129 ], [ -68.50731, -25.16808 ], [ -68.50345, -25.22098 ], [ -68.50898, -25.23255 ], [ -68.52718, -25.2313 ], [ -68.54378, -25.25135 ], [ -68.54291, -25.2607 ], [ -68.54989, -25.26096 ], [ -68.53009, -25.29131 ], [ -68.55731, -25.30166 ], [ -68.57959, -25.28599 ], [ -68.58751, -25.29008 ], [ -68.58924, -25.30066 ], [ -68.59536, -25.30293 ], [ -68.6006, -25.29331 ], [ -68.63689, -25.31339 ], [ -68.65741, -25.30352 ], [ -68.67178, -25.32617 ], [ -68.672, -25.36062 ], [ -68.68082, -25.36148 ], [ -68.68297, -25.36964 ], [ -68.69902, -25.36546 ], [ -68.72491, -25.39034 ], [ -68.74808, -25.38082 ], [ -68.76497, -25.39664 ], [ -68.78276, -25.40296 ], [ -68.79396, -25.38669 ], [ -68.81847, -25.37931 ], [ -68.8193, -25.37144 ], [ -68.82571, -25.36969 ], [ -68.847, -25.38148 ], [ -68.91078, -25.37552 ], [ -68.96117, -25.3904 ], [ -68.97211, -25.37735 ], [ -69.00621, -25.37607 ], [ -69.03182, -25.34762 ], [ -69.04504, -25.34118 ], [ -69.09462, -25.34287 ], [ -69.12245, -25.30495 ], [ -69.17691, -25.28488 ], [ -69.19599, -25.23786 ], [ -69.20832, -25.22831 ], [ -69.22302, -25.23514 ], [ -69.21915, -25.20006 ], [ -69.24609, -25.17469 ], [ -69.24593, -25.16096 ], [ -69.23061, -25.13219 ], [ -69.20826, -25.10938 ], [ -69.20748, -25.08383 ], [ -69.16917, -25.0126 ], [ -69.15717, -24.95277 ], [ -69.1472, -24.94219 ], [ -69.12809, -24.93617 ], [ -69.11947, -24.92062 ], [ -69.12549, -24.90576 ], [ -69.11416, -24.88353 ], [ -69.11577, -24.87345 ], [ -69.13286, -24.84326 ], [ -69.14139, -24.77936 ], [ -69.14822, -24.77573 ], [ -69.15541, -24.73019 ], [ -69.16931, -24.71183 ], [ -69.17368, -24.68396 ], [ -70.40677, -24.62749 ], [ -70.58002, -24.54875 ], [ -70.57498, -24.52848 ], [ -70.56476, -24.51755 ], [ -70.57288, -24.50908 ], [ -70.55453, -24.49537 ], [ -70.56352, -24.47281 ], [ -70.55428, -24.46304 ], [ -70.55494, -24.4514 ], [ -70.54225, -24.42539 ], [ -70.54642, -24.38772 ], [ -70.55705, -24.37242 ], [ -70.5495, -24.373 ], [ -70.54082, -24.36097 ], [ -70.54983, -24.33374 ], [ -70.53354, -24.31045 ], [ -70.53457, -24.29209 ], [ -70.52766, -24.27914 ], [ -70.53448, -24.26984 ], [ -70.52896, -24.25893 ], [ -70.53505, -24.248 ], [ -70.52108, -24.24279 ], [ -70.52134, -24.20989 ], [ -70.51066, -24.19922 ], [ -70.52208, -24.18933 ], [ -70.52046, -24.18424 ], [ -70.50294, -24.1782 ], [ -70.50282, -24.16363 ], [ -70.51495, -24.15254 ], [ -70.52151, -24.12302 ], [ -70.50422, -24.11889 ], [ -70.49818, -24.08041 ], [ -70.51093, -24.06478 ], [ -70.50869, -24.03128 ], [ -70.51985, -24.02083 ], [ -70.50767, -23.98511 ], [ -70.51556, -23.97038 ], [ -70.5076, -23.94319 ], [ -70.51668, -23.9261 ], [ -70.50005, -23.92048 ], [ -70.49503, -23.90534 ], [ -70.50486, -23.88459 ], [ -70.51406, -23.88048 ], [ -70.51667, -23.86604 ], [ -70.52638, -23.86207 ], [ -70.50392, -23.84954 ], [ -70.50019, -23.83039 ], [ -70.50639, -23.79809 ], [ -70.49249, -23.79025 ], [ -70.4853, -23.77582 ], [ -70.47416, -23.77335 ], [ -70.47576, -23.76559 ], [ -70.468, -23.75778 ], [ -70.45874, -23.75899 ], [ -70.44644, -23.74843 ], [ -70.43321, -23.71125 ], [ -70.40407, -23.6642 ], [ -70.40302, -23.65607 ], [ -70.40816, -23.65305 ], [ -70.40896, -23.6462 ], [ -70.40444, -23.65429 ], [ -70.40635, -23.64581 ], [ -70.39705, -23.64207 ], [ -70.39214, -23.61314 ], [ -70.39785, -23.59297 ], [ -70.39235, -23.57973 ], [ -70.40916, -23.5568 ], [ -70.39901, -23.54684 ], [ -70.40206, -23.5354 ], [ -70.4314, -23.49532 ], [ -70.4715, -23.4709 ], [ -70.49491, -23.46376 ], [ -70.51337, -23.46759 ], [ -70.51557, -23.4934 ], [ -70.53289, -23.50758 ], [ -70.52861, -23.51976 ], [ -70.54348, -23.53629 ], [ -70.55656, -23.53563 ], [ -70.56842, -23.52609 ], [ -70.57588, -23.52936 ] ] ] } },
{ "type": "Feature", "properties": { "comuna_norm": "MEJILLONES" }, "geometry": { "type": "Polygon", "coordinates": [ [ [ -70.59191, -23.21609 ], [ -70.57005, -23.20894 ], [ -70.56072, -23.18972 ], [ -70.57381, -23.15626 ], [ -70.56419, -23.12933 ], [ -70.58219, -23.10486 ], [ -70.5732, -23.09484 ], [ -70.57943, -23.08304 ], [ -70.55909, -23.07362 ], [ -70.55841, -23.0618 ], [ -70.55021, -23.05371 ], [ -70.5243, -23.04528 ], [ -70.51714, -23.02508 ], [ -70.50799, -23.02559 ], [ -70.49812, -23.04395 ], [ -70.50176, -23.07153 ], [ -70.48547, -23.09752 ], [ -70.46325, -23.10006 ], [ -70.42199, -23.0913 ], [ -70.38721, -23.0712 ], [ -70.38775, -23.06552 ], [ -70.38398, -23.06869 ], [ -70.36321, -23.04831 ], [ -70.33732, -23.01017 ], [ -70.32361, -22.97132 ], [ -70.31142, -22.96437 ], [ -70.30353, -22.92185 ], [ -70.29354, -22.91859 ], [ -70.28878, -22.90919 ], [ -70.29093, -22.88007 ], [ -70.3161, -22.80463 ], [ -70.30682, -22.7832 ], [ -70.31274, -22.76425 ], [ -70.29123, -22.74805 ], [ -70.29395, -22.73816 ], [ -70.28045, -22.71783 ], [ -70.2793, -22.69404 ], [ -70.28452, -22.68572 ], [ -70.27847, -22.67979 ], [ -70.27956, -22.66664 ], [ -70.29037, -22.65634 ], [ -70.28613, -22.64646 ], [ -70.2686, -22.64168 ], [ -70.26328, -22.63181 ], [ -69.96519, -22.42512 ], [ -69.96167, -22.45468 ], [ -69.91823, -22.47495 ], [ -69.91608, -22.53852 ], [ -69.92222, -22.54049 ], [ -69.90854, -22.56377 ], [ -69.89373, -22.63514 ], [ -69.92287, -22.68889 ], [ -69.93486, -22.74251 ], [ -69.93379, -22.77209 ], [ -69.94686, -22.78583 ], [ -69.9544, -22.8106 ], [ -69.94506, -22.83435 ], [ -69.96229, -22.84883 ], [ -69.96878, -22.86768 ], [ -69.96729, -22.91273 ], [ -69.97728, -22.92522 ], [ -69.97941, -22.95383 ], [ -69.99178, -22.98136 ], [ -69.9877, -22.99774 ], [ -70.00888, -23.02036 ], [ -70.01065, -23.05587 ], [ -70.03159, -23.06684 ], [ -70.03253, -23.09106 ], [ -70.0513, -23.1148 ], [ -70.05941, -23.14387 ], [ -70.07113, -23.15418 ], [ -70.07786, -23.17316 ], [ -70.09321, -23.18951 ], [ -70.10324, -23.18268 ], [ -70.12037, -23.20768 ], [ -70.13199, -23.20311 ], [ -70.12914, -23.21567 ], [ -70.13512, -23.22613 ], [ -70.12858, -23.23453 ], [ -70.17027, -23.31053 ], [ -70.18086, -23.31645 ], [ -70.18528, -23.34442 ], [ -70.39926, -23.29683 ], [ -70.55141, -23.36237 ], [ -70.60639, -23.3593 ], [ -70.59817, -23.35602 ], [ -70.59565, -23.342 ], [ -70.58232, -23.32627 ], [ -70.60148, -23.30289 ], [ -70.60382, -23.28953 ], [ -70.60479, -23.2735 ], [ -70.59604, -23.26056 ], [ -70.60448, -23.25159 ], [ -70.59191, -23.21609 ] ] ] } },
{ "type": "Feature", "properties": { "comuna_norm": "TALTAL" }, "geometry": { "type": "Polygon", "coordinates": [ [ [ -70.71168, -25.83875 ], [ -70.73723, -25.82454 ], [ -70.73792, -25.81652 ], [ -70.73366, -25.81832 ], [ -70.72351, -25.80366 ], [ -70.73066, -25.77912 ], [ -70.70506, -25.77411 ], [ -70.69529, -25.76008 ], [ -70.69927, -25.7516 ], [ -70.68492, -25.74367 ], [ -70.69512, -25.72302 ], [ -70.69242, -25.68049 ], [ -70.68588, -25.6811 ], [ -70.68276, -25.66124 ], [ -70.67554, -25.66463 ], [ -70.65379, -25.64722 ], [ -70.64522, -25.65357 ], [ -70.63639, -25.64478 ], [ -70.63392, -25.62445 ], [ -70.64554, -25.61746 ], [ -70.63831, -25.5499 ], [ -70.64409, -25.53866 ], [ -70.65154, -25.53908 ], [ -70.64691, -25.53005 ], [ -70.63374, -25.52877 ], [ -70.63043, -25.51758 ], [ -70.6351, -25.51423 ], [ -70.62965, -25.50703 ], [ -70.5758, -25.50674 ], [ -70.55752, -25.4875 ], [ -70.53038, -25.48069 ], [ -70.51819, -25.44224 ], [ -70.52731, -25.43152 ], [ -70.52466, -25.41732 ], [ -70.51269, -25.40702 ], [ -70.51714, -25.39592 ], [ -70.49229, -25.40931 ], [ -70.47842, -25.3991 ], [ -70.47768, -25.38928 ], [ -70.45493, -25.38315 ], [ -70.44657, -25.36492 ], [ -70.45633, -25.29675 ], [ -70.44928, -25.29073 ], [ -70.45299, -25.28288 ], [ -70.44129, -25.27204 ], [ -70.44361, -25.26237 ], [ -70.43442, -25.25659 ], [ -70.43899, -25.22573 ], [ -70.44383, -25.22574 ], [ -70.43807, -25.21183 ], [ -70.44336, -25.20623 ], [ -70.43538, -25.19907 ], [ -70.45741, -25.16426 ], [ -70.46384, -25.13599 ], [ -70.48353, -25.11621 ], [ -70.49462, -25.11116 ], [ -70.50295, -25.11444 ], [ -70.50795, -25.09667 ], [ -70.48826, -25.07414 ], [ -70.48436, -25.04438 ], [ -70.4698, -25.02009 ], [ -70.4666, -24.99483 ], [ -70.48973, -24.95128 ], [ -70.51625, -24.93366 ], [ -70.52898, -24.91562 ], [ -70.53127, -24.89923 ], [ -70.52151, -24.86653 ], [ -70.54452, -24.84269 ], [ -70.54793, -24.77169 ], [ -70.55782, -24.7628 ], [ -70.56064, -24.74453 ], [ -70.5777, -24.73226 ], [ -70.58059, -24.72044 ], [ -70.56493, -24.70173 ], [ -70.57404, -24.65314 ], [ -70.55932, -24.64433 ], [ -70.56178, -24.62023 ], [ -70.55024, -24.59536 ], [ -70.57048, -24.55424 ], [ -70.5794, -24.54937 ], [ -70.40677, -24.62749 ], [ -69.17368, -24.68396 ], [ -69.16931, -24.71183 ], [ -69.15541, -24.73019 ], [ -69.14822, -24.77573 ], [ -69.14139, -24.77936 ], [ -69.13286, -24.84326 ], [ -69.11577, -24.87345 ], [ -69.11416, -24.88353 ], [ -69.12549, -24.90576 ], [ -69.11947, -24.92062 ], [ -69.12809, -24.93617 ], [ -69.1472, -24.94219 ], [ -69.15717, -24.95277 ], [ -69.16917, -25.0126 ], [ -69.20748, -25.08383 ], [ -69.20826, -25.10938 ], [ -69.23061, -25.13219 ], [ -69.24748, -25.16978 ], [ -69.21915, -25.20006 ], [ -69.22302, -25.23514 ], [ -69.20832, -25.22831 ], [ -69.19599, -25.23786 ], [ -69.17827, -25.28384 ], [ -69.12245, -25.30495 ], [ -69.09462, -25.34287 ], [ -69.04504, -25.34118 ], [ -69.03182, -25.34762 ], [ -69.00621, -25.37607 ], [ -68.9886, -25.38001 ], [ -68.98721, -25.38515 ], [ -68.99349, -25.40901 ], [ -69.03586, -25.44226 ], [ -69.01687, -25.44799 ], [ -69.00281, -25.46179 ], [ -68.99583, -25.5055 ], [ -69.02267, -25.50881 ], [ -69.03004, -25.53091 ], [ -69.05213, -25.54365 ], [ -69.0573, -25.56959 ], [ -69.08482, -25.58411 ], [ -69.07053, -25.58581 ], [ -69.06678, -25.60614 ], [ -69.05067, -25.63482 ], [ -69.07072, -25.6898 ], [ -69.09472, -25.71996 ], [ -69.05822, -25.72765 ], [ -69.08013, -25.74442 ], [ -69.07907, -25.75387 ], [ -69.09722, -25.7847 ], [ -69.09824, -25.80176 ], [ -69.1476, -25.82015 ], [ -69.17136, -25.81645 ], [ -69.20187, -25.83355 ], [ -69.21632, -25.83397 ], [ -69.21598, -25.84122 ], [ -69.22975, -25.83912 ], [ -69.24222, -25.84821 ], [ -69.24586, -25.85931 ], [ -69.26663, -25.86663 ], [ -69.27376, -25.85687 ], [ -69.29631, -25.86913 ], [ -69.34957, -25.86641 ], [ -69.36776, -25.88009 ], [ -69.38027, -25.88023 ], [ -69.4269, -25.85642 ], [ -69.43907, -25.85964 ], [ -69.45176, -25.89394 ], [ -69.46821, -25.89792 ], [ -69.47674, -25.91197 ], [ -69.50265, -25.91479 ], [ -69.50299, -25.94872 ], [ -69.51211, -25.95121 ], [ -69.58281, -25.94232 ], [ -69.67296, -25.94331 ], [ -69.729, -25.91933 ], [ -69.75655, -25.91736 ], [ -69.79586, -25.92663 ], [ -69.81936, -25.9239 ], [ -69.83733, -25.94038 ], [ -69.8543, -25.94527 ], [ -69.86784, -25.92384 ], [ -69.90843, -25.89448 ], [ -69.95821, -25.90138 ], [ -70.02297, -25.91988 ], [ -70.07594, -25.96502 ], [ -70.07874, -25.95256 ], [ -70.11087, -25.94952 ], [ -70.12788, -25.95507 ], [ -70.13681, -25.94897 ], [ -70.14844, -25.95215 ], [ -70.16597, -25.9399 ], [ -70.19965, -25.94178 ], [ -70.22472, -25.92043 ], [ -70.24047, -25.91607 ], [ -70.23945, -25.92189 ], [ -70.25279, -25.9318 ], [ -70.26478, -25.93078 ], [ -70.2734, -25.90854 ], [ -70.30103, -25.89617 ], [ -70.31508, -25.90461 ], [ -70.313, -25.91089 ], [ -70.32433, -25.9311 ], [ -70.33237, -25.92308 ], [ -70.34184, -25.93326 ], [ -70.39319, -25.92879 ], [ -70.39278, -25.93876 ], [ -70.4069, -25.9394 ], [ -70.42014, -25.95336 ], [ -70.43575, -25.95263 ], [ -70.47625, -25.97143 ], [ -70.48321, -25.9679 ], [ -70.52606, -26.00961 ], [ -70.57592, -26.00196 ], [ -70.59198, -26.00719 ], [ -70.60516, -26.00413 ], [ -70.61335, -26.02982 ], [ -70.60747, -26.04513 ], [ -70.61916, -26.061 ], [ -70.65855, -26.06154 ], [ -70.6353, -26.05111 ], [ -70.62799, -25.9943 ], [ -70.64001, -25.97712 ], [ -70.64734, -25.95029 ], [ -70.69341, -25.90407 ], [ -70.69191, -25.88877 ], [ -70.70401, -25.87422 ], [ -70.70288, -25.859 ], [ -70.71168, -25.83875 ] ] ] } },
{ "type": "Feature", "properties": { "comuna_norm": "ALTO HOSPICIO" }, "geometry": { "type": "Polygon", "coordinates": [ [ [ -69.8907, -20.04943 ], [ -69.91125, -20.22838 ], [ -69.96592, -20.32137 ], [ -70.02802, -20.30605 ], [ -70.10944, -20.35121 ], [ -70.12438, -20.31232 ], [ -70.10879, -20.26295 ], [ -70.1108, -20.24962 ], [ -70.11975, -20.24152 ], [ -70.11933, -20.23191 ], [ -70.10993, -20.23197 ], [ -70.1077, -20.17122 ], [ -70.11867, -20.15473 ], [ -70.10302, -20.11456 ], [ -70.09918, -20.08534 ], [ -69.8907, -20.04943 ] ] ] } },
{ "type": "Feature", "properties": { "comuna_norm": "SIERRA GORDA" }, "geometry": { "type": "Polygon", "coordinates": [ [ [ -69.99085, -23.00433 ], [ -69.99178, -22.98136 ], [ -69.97941, -22.95383 ], [ -69.97728, -22.92522 ], [ -69.96729, -22.91273 ], [ -69.96947, -22.87089 ], [ -69.76979, -22.86943 ], [ -69.53614, -22.88021 ], [ -69.19076, -22.57634 ], [ -69.19401, -22.59667 ], [ -69.18798, -22.61688 ], [ -69.15089, -22.66307 ], [ -68.98644, -22.74506 ], [ -68.86847, -22.90515 ], [ -68.86495, -22.92723 ], [ -68.82938, -22.95166 ], [ -68.81257, -22.97121 ], [ -68.8018, -22.99919 ], [ -68.81533, -23.00829 ], [ -68.83267, -23.03821 ], [ -68.82526, -23.04566 ], [ -68.82644, -23.06088 ], [ -68.83572, -23.08531 ], [ -68.84366, -23.08734 ], [ -68.84498, -23.10491 ], [ -68.82394, -23.12149 ], [ -68.77005, -23.14123 ], [ -68.76285, -23.13979 ], [ -68.75485, -23.12485 ], [ -68.74404, -23.12603 ], [ -68.73777, -23.11379 ], [ -68.6779, -23.10034 ], [ -68.65674, -23.11279 ], [ -68.65687, -23.12632 ], [ -68.61977, -23.17304 ], [ -68.62103, -23.18399 ], [ -68.64868, -23.21712 ], [ -68.64674, -23.23609 ], [ -68.67916, -23.27091 ], [ -68.69102, -23.31237 ], [ -68.68981, -23.33251 ], [ -68.70028, -23.34749 ], [ -68.70374, -23.37093 ], [ -68.7178, -23.38703 ], [ -68.70299, -23.41893 ], [ -68.70655, -23.44268 ], [ -68.69886, -23.45537 ], [ -68.7029, -23.46962 ], [ -68.697, -23.49182 ], [ -68.70253, -23.50754 ], [ -68.69382, -23.53139 ], [ -68.70535, -23.53875 ], [ -68.70867, -23.56731 ], [ -68.68545, -23.59829 ], [ -68.68694, -23.64057 ], [ -68.6741, -23.65594 ], [ -68.67796, -23.68179 ], [ -68.66517, -23.69871 ], [ -68.68984, -23.79353 ], [ -68.69327, -23.84702 ], [ -68.68433, -23.86187 ], [ -68.69855, -23.92313 ], [ -68.87401, -23.8751 ], [ -69.08095, -23.68921 ], [ -69.14522, -23.6665 ], [ -69.34561, -23.66053 ], [ -69.43811, -23.60416 ], [ -69.60047, -23.62608 ], [ -70.04771, -23.6234 ], [ -69.9697, -23.32938 ], [ -70.01376, -23.05793 ], [ -70.00785, -23.04839 ], [ -70.00888, -23.02036 ], [ -69.99085, -23.00433 ] ] ] } },
{ "type": "Feature", "properties": { "comuna_norm": "IQUIQUE" }, "geometry": { "type": "Polygon", "coordinates": [ [ [ -70.19716, -20.71013 ], [ -70.18896, -20.70427 ], [ -70.18705, -20.69247 ], [ -70.19237, -20.6794 ], [ -70.18199, -20.65603 ], [ -70.19834, -20.62391 ], [ -70.19888, -20.60956 ], [ -70.19002, -20.59158 ], [ -70.19953, -20.53355 ], [ -70.16635, -20.50081 ], [ -70.16186, -20.48564 ], [ -70.16888, -20.47354 ], [ -70.16266, -20.47245 ], [ -70.15833, -20.46121 ], [ -70.16618, -20.42303 ], [ -70.15877, -20.40865 ], [ -70.18235, -20.37799 ], [ -70.18278, -20.363 ], [ -70.17679, -20.35077 ], [ -70.14508, -20.33257 ], [ -70.13696, -20.30079 ], [ -70.12929, -20.29547 ], [ -70.13379, -20.29103 ], [ -70.1291, -20.28732 ], [ -70.13082, -20.26452 ], [ -70.15292, -20.23656 ], [ -70.14725, -20.23197 ], [ -70.15927, -20.21568 ], [ -70.1546, -20.2117 ], [ -70.16341, -20.20762 ], [ -70.15749, -20.20022 ], [ -70.15377, -20.21136 ], [ -70.13779, -20.19449 ], [ -70.13981, -20.17792 ], [ -70.15214, -20.16423 ], [ -70.1373, -20.14116 ], [ -70.12163, -20.0899 ], [ -70.13441, -20.06057 ], [ -70.09129, -20.08367 ], [ -70.09918, -20.08534 ], [ -70.10302, -20.11456 ], [ -70.11867, -20.15473 ], [ -70.1077, -20.17122 ], [ -70.10993, -20.23197 ], [ -70.11933, -20.23191 ], [ -70.11975, -20.24152 ], [ -70.1108, -20.24962 ], [ -70.10879, -20.26295 ], [ -70.12438, -20.31232 ], [ -70.10793, -20.35056 ], [ -70.07854, -20.45751 ], [ -70.02583, -20.57828 ], [ -70.0513, -20.69925 ], [ -69.99449, -20.83781 ], [ -69.81984, -21.11714 ], [ -69.89075, -21.11022 ], [ -69.88167, -21.30453 ], [ -69.92975, -21.37297 ], [ -69.93063, -21.42463 ], [ -70.00487, -21.43852 ], [ -70.0393, -21.42456 ], [ -70.05839, -21.43023 ], [ -70.08766, -21.37729 ], [ -70.0983, -21.33901 ], [ -70.08662, -21.33716 ], [ -70.06954, -21.31949 ], [ -70.06632, -21.2954 ], [ -70.08759, -21.25135 ], [ -70.08118, -21.23477 ], [ -70.09518, -21.21123 ], [ -70.09453, -21.19197 ], [ -70.11068, -21.17578 ], [ -70.11576, -21.14847 ], [ -70.13377, -21.12966 ], [ -70.12072, -21.1121 ], [ -70.12473, -21.08739 ], [ -70.1509, -21.06267 ], [ -70.16567, -21.03134 ], [ -70.17746, -21.0245 ], [ -70.15599, -20.98952 ], [ -70.15851, -20.97798 ], [ -70.13087, -20.95243 ], [ -70.12708, -20.93526 ], [ -70.14267, -20.91354 ], [ -70.13647, -20.90711 ], [ -70.14193, -20.90284 ], [ -70.13676, -20.89301 ], [ -70.14473, -20.87235 ], [ -70.18523, -20.82314 ], [ -70.20702, -20.8111 ], [ -70.1852, -20.79782 ], [ -70.19936, -20.75257 ], [ -70.18355, -20.73631 ], [ -70.1956, -20.72693 ], [ -70.19716, -20.71013 ] ] ] } },
{ "type": "Feature", "properties": { "comuna_norm": "GENERAL LAGOS" }, "geometry": { "type": "Polygon", "coordinates": [ [ [ -69.28449, -17.96938 ], [ -69.35574, -17.98533 ], [ -69.36605, -17.99489 ], [ -69.39525, -18.00204 ], [ -69.41706, -17.98591 ], [ -69.46548, -17.98008 ], [ -69.4866, -17.98907 ], [ -69.53177, -17.9886 ], [ -69.57548, -17.9986 ], [ -69.59326, -17.9898 ], [ -69.62927, -17.99578 ], [ -69.6487, -18.0471 ], [ -69.64504, -18.06534 ], [ -69.65041, -18.10586 ], [ -69.65959, -18.11997 ], [ -69.6576, -18.13371 ], [ -69.64263, -18.14519 ], [ -69.64296, -18.16294 ], [ -69.65619, -18.1652 ], [ -69.70166, -18.14905 ], [ -69.74459, -18.14601 ], [ -69.77174, -18.10647 ], [ -69.74592, -18.08581 ], [ -69.76635, -18.0792 ], [ -69.77065, -18.05407 ], [ -69.78365, -18.04829 ], [ -69.75469, -17.9893 ], [ -69.75024, -17.94734 ], [ -69.77981, -17.91191 ], [ -69.79907, -17.86581 ], [ -69.8008, -17.76221 ], [ -69.82224, -17.74399 ], [ -69.82606, -17.70602 ], [ -69.79626, -17.64591 ], [ -69.66644, -17.66032 ], [ -69.55239, -17.57531 ], [ -69.46848, -17.4984 ], [ -69.46787, -17.60485 ], [ -69.33811, -17.72965 ], [ -69.33321, -17.7658 ], [ -69.31085, -17.79449 ], [ -69.3109, -17.82001 ], [ -69.29892, -17.85543 ], [ -69.30895, -17.89332 ], [ -69.28449, -17.96938 ] ] ] } },
{ "type": "Feature", "properties": { "comuna_norm": "SAN PEDRO DE ATACAMA" }, "geometry": { "type": "Polygon", "coordinates": [ [ [ -68.06504, -24.32642 ], [ -68.11781, -24.23812 ], [ -68.34559, -23.99786 ], [ -68.46183, -23.98453 ], [ -68.51362, -23.96664 ], [ -68.69855, -23.92313 ], [ -68.68433, -23.86187 ], [ -68.69327, -23.84702 ], [ -68.68984, -23.79353 ], [ -68.66517, -23.69871 ], [ -68.67796, -23.68179 ], [ -68.6741, -23.65594 ], [ -68.68694, -23.64057 ], [ -68.68545, -23.59829 ], [ -68.70867, -23.56731 ], [ -68.70535, -23.53875 ], [ -68.69382, -23.53139 ], [ -68.70253, -23.50754 ], [ -68.697, -23.49182 ], [ -68.7029, -23.46962 ], [ -68.69886, -23.45537 ], [ -68.70655, -23.44268 ], [ -68.70299, -23.41893 ], [ -68.7178, -23.38703 ], [ -68.70374, -23.37093 ], [ -68.70028, -23.34749 ], [ -68.68981, -23.33251 ], [ -68.69102, -23.31237 ], [ -68.67916, -23.27091 ], [ -68.64674, -23.23609 ], [ -68.64585, -23.21069 ], [ -68.63096, -23.19811 ], [ -68.61917, -23.1755 ], [ -68.65687, -23.12632 ], [ -68.66141, -23.10642 ], [ -68.65176, -23.10309 ], [ -68.63841, -23.08386 ], [ -68.61771, -23.08033 ], [ -68.58462, -23.08834 ], [ -68.53925, -23.08134 ], [ -68.54467, -23.06431 ], [ -68.53239, -23.05243 ], [ -68.52633, -23.02255 ], [ -68.53755, -23.00694 ], [ -68.52057, -22.89985 ], [ -68.4981, -22.85936 ], [ -68.48403, -22.8491 ], [ -68.46662, -22.85564 ], [ -68.45986, -22.7895 ], [ -68.43805, -22.75325 ], [ -68.40584, -22.74922 ], [ -68.40573, -22.74086 ], [ -68.38718, -22.72536 ], [ -68.36011, -22.6646 ], [ -68.33403, -22.65352 ], [ -68.30955, -22.63241 ], [ -68.30588, -22.62041 ], [ -68.291, -22.61578 ], [ -68.28014, -22.60185 ], [ -68.26389, -22.59995 ], [ -68.26062, -22.5456 ], [ -68.25196, -22.53917 ], [ -68.25621, -22.53279 ], [ -68.24408, -22.51896 ], [ -68.24357, -22.50795 ], [ -68.22929, -22.50416 ], [ -68.19784, -22.45685 ], [ -68.15403, -22.43765 ], [ -68.15262, -22.40248 ], [ -68.12364, -22.40248 ], [ -68.07642, -22.4326 ], [ -68.06554, -22.42028 ], [ -68.02772, -22.41829 ], [ -68.01422, -22.43263 ], [ -67.99805, -22.41702 ], [ -67.97047, -22.41055 ], [ -67.96824, -22.39599 ], [ -67.94149, -22.38058 ], [ -67.90005, -22.4071 ], [ -67.90478, -22.41937 ], [ -67.89814, -22.42042 ], [ -67.89752, -22.43451 ], [ -67.8839, -22.4418 ], [ -67.89248, -22.44738 ], [ -67.8929, -22.49911 ], [ -67.86816, -22.5326 ], [ -67.84096, -22.53307 ], [ -67.85289, -22.55754 ], [ -67.84355, -22.56136 ], [ -67.84409, -22.57474 ], [ -67.832, -22.58129 ], [ -67.84356, -22.59383 ], [ -67.86298, -22.59962 ], [ -67.86353, -22.60801 ], [ -67.85409, -22.61568 ], [ -67.85716, -22.62229 ], [ -67.88338, -22.62804 ], [ -67.87514, -22.63943 ], [ -67.87647, -22.66539 ], [ -67.86801, -22.67947 ], [ -67.87085, -22.69344 ], [ -67.88785, -22.70549 ], [ -67.88969, -22.71819 ], [ -67.86758, -22.74385 ], [ -67.87706, -22.75516 ], [ -67.87299, -22.76841 ], [ -67.88182, -22.83407 ], [ -67.86392, -22.83501 ], [ -67.84222, -22.84816 ], [ -67.82609, -22.84528 ], [ -67.8298, -22.85624 ], [ -67.79906, -22.88118 ], [ -67.56851, -22.89804 ], [ -67.1803, -22.81417 ], [ -66.99018, -22.99996 ], [ -67.32262, -24.03416 ], [ -68.06504, -24.32642 ] ] ] } },
{ "type": "Feature", "properties": { "comuna_norm": "PICA" }, "geometry": { "type": "Polygon", "coordinates": [ [ [ -68.80293, -19.74933 ], [ -68.66599, -19.75217 ], [ -68.65753, -19.75849 ], [ -68.65706, -19.76826 ], [ -68.62387, -19.7867 ], [ -68.59935, -19.828 ], [ -68.5282, -19.84552 ], [ -68.5423, -19.89002 ], [ -68.52162, -19.92427 ], [ -68.55131, -20.02173 ], [ -68.56625, -20.05008 ], [ -68.64044, -20.04886 ], [ -68.69298, -20.06826 ], [ -68.76213, -20.07815 ], [ -68.77389, -20.12967 ], [ -68.76198, -20.13434 ], [ -68.74711, -20.12297 ], [ -68.73131, -20.13539 ], [ -68.70433, -20.13375 ], [ -68.70355, -20.15905 ], [ -68.69181, -20.17704 ], [ -68.70627, -20.17868 ], [ -68.7103, -20.18586 ], [ -68.71113, -20.20625 ], [ -68.6989, -20.21272 ], [ -68.71499, -20.22689 ], [ -68.71267, -20.24891 ], [ -68.69932, -20.25319 ], [ -68.69359, -20.27517 ], [ -68.69716, -20.28992 ], [ -68.68017, -20.2951 ], [ -68.66051, -20.31904 ], [ -68.66095, -20.33929 ], [ -68.67433, -20.35676 ], [ -68.73257, -20.37358 ], [ -68.74151, -20.36902 ], [ -68.73875, -20.45681 ], [ -68.66625, -20.51656 ], [ -68.62133, -20.53218 ], [ -68.59893, -20.55068 ], [ -68.59315, -20.54818 ], [ -68.57451, -20.57423 ], [ -68.53499, -20.56948 ], [ -68.52134, -20.5849 ], [ -68.51569, -20.60438 ], [ -68.48469, -20.60542 ], [ -68.47492, -20.61864 ], [ -68.46183, -20.62252 ], [ -68.45939, -20.63162 ], [ -68.43867, -20.64088 ], [ -68.47717, -20.66578 ], [ -68.50143, -20.66921 ], [ -68.52748, -20.69917 ], [ -68.53177, -20.72223 ], [ -68.55317, -20.72908 ], [ -68.55257, -20.75147 ], [ -68.54138, -20.77528 ], [ -68.54576, -20.78293 ], [ -68.54074, -20.80707 ], [ -68.54706, -20.83117 ], [ -68.55591, -20.83339 ], [ -68.54749, -20.84211 ], [ -68.55568, -20.86607 ], [ -68.55324, -20.87624 ], [ -68.54118, -20.89103 ], [ -68.54157, -20.90782 ], [ -68.52997, -20.91325 ], [ -68.51366, -20.9357 ], [ -68.50406, -20.94297 ], [ -68.48073, -20.94519 ], [ -68.53576, -21.06468 ], [ -68.85968, -21.28498 ], [ -68.89972, -21.17316 ], [ -68.96722, -21.09674 ], [ -68.96645, -20.91131 ], [ -68.95582, -20.82586 ], [ -68.96532, -20.79161 ], [ -68.95681, -20.77841 ], [ -68.95729, -20.76415 ], [ -68.96325, -20.75921 ], [ -68.95406, -20.75446 ], [ -68.96698, -20.68907 ], [ -69.00198, -20.6764 ], [ -69.04602, -20.68848 ], [ -69.0646, -20.68553 ], [ -69.08293, -20.70996 ], [ -69.10466, -20.72079 ], [ -69.13874, -20.72426 ], [ -69.16174, -20.71738 ], [ -69.22464, -20.73619 ], [ -69.24184, -20.73462 ], [ -69.27123, -20.71055 ], [ -69.30752, -20.70301 ], [ -69.39577, -20.73264 ], [ -69.47744, -20.73077 ], [ -69.47525, -20.25744 ], [ -69.47176, -20.25045 ], [ -69.42526, -20.2583 ], [ -69.33003, -20.24736 ], [ -69.29386, -20.25065 ], [ -69.21803, -20.24378 ], [ -69.19423, -20.24926 ], [ -69.16709, -20.26573 ], [ -69.13329, -20.27181 ], [ -69.10514, -20.28949 ], [ -69.08684, -20.28772 ], [ -69.0669, -20.29706 ], [ -69.05072, -20.28581 ], [ -69.0195, -20.2874 ], [ -69.00917, -20.25817 ], [ -68.96662, -20.21346 ], [ -68.96157, -20.199 ], [ -68.96422, -20.18094 ], [ -68.99052, -20.17545 ], [ -68.9976, -20.14965 ], [ -68.99229, -20.14323 ], [ -69.00872, -20.11019 ], [ -69.00718, -20.10159 ], [ -68.99229, -20.096 ], [ -68.98265, -20.07905 ], [ -68.96876, -20.02191 ], [ -68.98232, -19.98193 ], [ -68.97917, -19.93536 ], [ -68.98653, -19.92285 ], [ -69.0017, -19.91432 ], [ -69.01031, -19.91673 ], [ -69.02496, -19.8993 ], [ -69.04151, -19.86323 ], [ -69.03852, -19.83393 ], [ -69.00505, -19.81931 ], [ -68.92892, -19.74364 ], [ -68.92681, -19.67642 ], [ -68.90778, -19.60035 ], [ -68.88606, -19.62924 ], [ -68.84554, -19.64396 ], [ -68.83293, -19.66187 ], [ -68.82974, -19.69821 ], [ -68.80993, -19.71494 ], [ -68.81436, -19.7354 ], [ -68.80293, -19.74933 ] ] ] } },
{ "type": "Feature", "properties": { "comuna_norm": "OLLAGUE" }, "geometry": { "type": "Polygon", "coordinates": [ [ [ -68.53552, -21.06416 ], [ -68.48082, -20.94128 ], [ -68.47453, -20.94634 ], [ -68.42782, -20.94611 ], [ -68.41249, -20.93454 ], [ -68.29482, -21.09764 ], [ -68.17911, -21.30193 ], [ -68.18065, -21.60401 ], [ -68.11782, -21.67829 ], [ -68.0929, -21.73852 ], [ -68.06057, -21.77003 ], [ -68.07111, -21.98212 ], [ -68.19283, -21.90586 ], [ -68.34025, -21.88926 ], [ -68.31959, -21.7803 ], [ -68.31163, -21.6926 ], [ -68.39535, -21.65314 ], [ -68.52191, -21.54637 ], [ -68.50291, -21.39165 ], [ -68.5146, -21.27826 ], [ -68.4679, -21.22074 ], [ -68.53552, -21.06416 ] ] ] } }
]
}
